{
    "bodies": [
        {
            "name": "Planet Nine",
            "mass": 1.5016900000000002e-05,
            "semi_major_axis": 500,
            "eccentricity": 0.25,
            "inclination": 0.3490658503988659,
            "longitude_of_ascending_node": 1.5009831567151235,
            "argument_of_perihelion": 2.4085543677521746,
            "mean_anomaly": 3.20791516517
        },
        {
            "name": "Neptune",
            "mass": 5.14855965e-05,
            "semi_major_axis": 30.06896348,
            "eccentricity": 0.00858587,
            "inclination": 0.03087784152750808,
            "longitude_of_ascending_node": 2.2989771867912894,
            "argument_of_perihelion": 4.769106246955049,
            "mean_anomaly": 0.0
        },
        {
            "name": "Uranus",
            "mass": 4.36430044e-05,
            "semi_major_axis": 19.19126393,
            "eccentricity": 0.04716771,
            "inclination": 0.013436591779403545,
            "longitude_of_ascending_node": 1.2955558093602884,
            "argument_of_perihelion": 4.594852225370085,
            "mean_anomaly": 0.0
        },
        {
            "name": "Saturn",
            "mass": 0.000285716656,
            "semi_major_axis": 9.53707032,
            "eccentricity": 0.0541506,
            "inclination": 0.04336200713409832,
            "longitude_of_ascending_node": 1.9847018570370527,
            "argument_of_perihelion": 5.911725137148381,
            "mean_anomaly": 0.0
        },
        {
            "name": "Jupiter",
            "mass": 0.000954588,
            "semi_major_axis": 5.20336301,
            "eccentricity": 0.04839266,
            "inclination": 0.022781782726281983,
            "longitude_of_ascending_node": 1.7550359006292962,
            "argument_of_perihelion": 4.785652666395656,
            "mean_anomaly": 0.0
        },
        
        {
            "name": "TNO-533",
            "mass": 0,
            "semi_major_axis": 332.177734375,
            "eccentricity": 0.05205078124999999,
            "inclination": 0.22711437776195742,
            "longitude_of_ascending_node": 2.6654949944455115,
            "argument_of_perihelion": 4.933298110815481,
            "mean_anomaly": 3.1448247599789583
        },
        {
            "name": "TNO-534",
            "mass": 0,
            "semi_major_axis": 332.51953125,
            "eccentricity": 0.05214843749999999,
            "inclination": 0.2275404835363701,
            "longitude_of_ascending_node": 2.850176679712519,
            "argument_of_perihelion": 3.716199452276508,
            "mean_anomaly": 0.602193758995325
        },
        {
            "name": "TNO-535",
            "mass": 0,
            "semi_major_axis": 332.861328125,
            "eccentricity": 0.052246093749999986,
            "inclination": 0.22796658931078279,
            "longitude_of_ascending_node": 3.6714537667828204,
            "argument_of_perihelion": 1.8031214890027447,
            "mean_anomaly": 4.490830419131149
        }

    ]
}